#aV2020  5 16  0  0  0.00000000     288 DD+AD WGS84 FIT  NGA
## 2105 518400.00000000   300.00000000 58985 0.0000000000000
+   32     1  2  3  4  5  6  7  8  9 10 11 12 13 14 15 16 17
+         18 19 20 21 22 23 24 25 26 27 28 29 30 31 32  0  0
+          0  0  0  0  0  0  0  0  0  0  0  0  0  0  0  0  0
+          0  0  0  0  0  0  0  0  0  0  0  0  0  0  0  0  0
+          0  0  0  0  0  0  0  0  0  0  0  0  0  0  0  0  0
++         2  2  2  2  2  2  2  2  2  2  2  2  2  2  2  2  2
++         2  2  2  2  2  2  2  2  2  2  2  2  2  2  2  0  0
++         0  0  0  0  0  0  0  0  0  0  0  0  0  0  0  0  0
++         0  0  0  0  0  0  0  0  0  0  0  0  0  0  0  0  0
++         0  0  0  0  0  0  0  0  0  0  0  0  0  0  0  0  0
%c cc cc ccc ccc cccc cccc cccc cccc ccccc ccccc ccccc ccccc
%c cc cc ccc ccc cccc cccc cccc cccc ccccc ccccc ccccc ccccc
%f  0.0000000  0.000000000  0.00000000000  0.000000000000000
%f  0.0000000  0.000000000  0.00000000000  0.000000000000000
%i    0    0    0    0      0      0      0      0         0
%i    0    0    0    0      0      0      0      0         0
/*      NGA, ST. LOUIS,MO.                                  
/*   EPHEMERIS COMPUTED FROM 2 DAYS OF DATA                 
/*   EPOCHA v5 SMOOTHER                                     
/*   G1762 IERS2010 SATAF SATAPC                            
*  2020  5 16  2 25  0.00000000
P  1  -8933.788085  18694.884432 -16636.947595   -380.475316                    
V  1 -18501.606660   9641.409219  21376.060292     -0.063707                    
P  2  22172.651998 -14265.068352  -2295.018342   -456.542009                    
V  2  -1231.199718   4565.505730 -31585.924290     -0.061992                    
P  3   2163.982476  17041.187448 -20341.534163   -177.056287                    
V  3 -23147.056948 -11112.211161 -11704.002798     -0.121748                    
P  4   -388.982338  26526.709202   -856.742330    -89.875292                    
V  4  -2885.391188  -1081.019419 -31729.678561     -0.049962                    
P  5  18167.718485  -5770.498103  18440.114169    -12.747220                    
V  5  20607.687122  11708.610728 -16321.826725     -0.007244                    
P  6  22950.093427  -4582.371971 -12546.672940   -272.247966                    
V  6 -12523.013137  10073.548131 -26426.551516     -0.068161                    
P  7   9798.980075  12146.539833  21817.201323   -282.056869                    
V  7 -22978.605320  14152.280326   1990.695623     -0.087083                    
P  8  -7087.521295  22409.592820  12128.900793    -34.134662                    
V  8  -3149.249165 -15309.408530  26724.819410     -0.013249                    
P  9   8164.183470  23338.245262   9631.716288   -218.073836                    
V  9  -2094.439705  12454.095512 -28276.764740     -0.072978                    
P 10 -24058.931776 -11460.108473  -1387.276474   -342.207378                    
V 10   -499.631289  -3054.764660  31634.713498     -0.115808                    
P 11 -11236.285627  24057.316932  -3550.202624   -276.166324                    
V 11  -5400.849730   1333.645713  30030.627988      0.106981                    
P 12   -218.071714 -16695.738990 -20930.557261    117.455094                    
V 12  22408.555808  13093.875408 -10645.421887     -0.044052                    
P 13  12892.845591 -16027.341345  16634.256454     10.324203                    
V 13    -90.762855  21438.060076  20669.844419      0.030409                    
P 14 -15078.714531    635.979648 -21501.942611    -12.705411                    
V 14    896.481356 -28132.298434  -1620.463787      0.025919                    
P 15   4873.784008 -23357.681382  10946.927745   -230.933216                    
V 15   5729.001558  13888.887313  26715.056856      0.026024                    
P 16 -17227.657210   4604.026674  19613.932730   -158.679248                    
V 16 -20724.988385 -14341.346878 -14241.554372     -0.045331                    
P 17  13326.872771   9962.723337 -20294.973724    265.389155                    
V 17  -1292.833242  26630.039374  11934.146902      0.060900                    
P 18  -8624.854924 -12475.470941  21797.057217    190.955738                    
V 18  23706.785761 -14298.219424   1177.918996      0.120304                    
P 19  14846.167566   1087.429553 -22298.157008   -158.246409                    
V 19  -1728.694220  27465.664569    172.549103      0.050930                    
P 20 -19554.029474 -15046.901796  10036.502070    527.689960                    
V 20  13118.598276   1496.357262  27366.825801     -0.000628                    
P 21 -11589.869390 -10904.512842  22023.634910     -0.860904                    
V 21  20925.055026 -15782.361451   3589.843648      0.049309                    
P 22  -7524.419146  13906.220628 -21114.174603   -782.155421                    
V 22 -25200.128759 -10903.349445   1916.717374      0.012976                    
P 23   9452.923383  22204.993497  11043.787034   -113.863871                    
V 23  -2209.307567  13790.921651 -27156.404731      0.031068                    
P 24   9443.496310 -20030.209052 -14590.224627    -13.080491                    
V 24  16569.757898  -8483.460624  23041.470747     -0.005105                    
P 25 -10995.429470 -18381.335457 -16113.610990      4.412583                    
V 25  18350.053228   7871.706949 -21566.234777      0.030810                    
P 26 -23984.166960  -2496.714880  11344.421562    207.190378                    
V 26 -11839.007407  -8619.625243 -26621.446276      0.071745                    
P 27 -12392.591637  13168.341458  19190.963624   -294.797007                    
V 27  -2326.627750 -24663.990308  15636.658988     -0.101765                    
P 28  22934.556770  12866.959500  -2516.340511    717.074323                    
V 28   1954.755384   4185.733440  32010.194396     -0.031470                    
P 29  -3956.880229 -25268.857637   7069.340156   -105.307527                    
V 29   2208.234269  -8958.703403 -30618.107195     -0.088572                    
P 30  19118.075545   4152.356302  18096.467662   -220.987185                    
V 30 -18865.534117  13090.388781  16749.654346     -0.082129                    
P 31 -23854.342994   5167.769862 -11049.108609    -42.659921                    
V 31  10767.610377  -8925.662732 -27073.855298     -0.025653                    
P 32 -14775.943075  -8382.785340 -20370.485193    281.299771                    
V 32   -284.812799 -26042.634685  10734.706516      0.076270                    
EOF
